[{"OBJECT_NAME":"OBJECT D","OBJECT_ID":"2024-092D","EPOCH":"2026-03-09T21:12:33.501312","MEAN_MOTION":15.33078357,"ECCENTRICITY":0.00083397,"INCLINATION":97.6418,"RA_OF_ASC_NODE":198.2302,"ARG_OF_PERICENTER":141.9853,"MEAN_ANOMALY":218.1979,"EPHEMERIS_TYPE":0,"CLASSIFICATION_TYPE":"U","NORAD_CAT_ID":59776,"ELEMENT_SET_NO":999,"REV_AT_EPOCH":10051,"BSTAR":0.00076511005,"MEAN_MOTION_DOT":0.00024443,"MEAN_MOTION_DDOT":0},{"OBJECT_NAME":"STARLINK-34661","OBJECT_ID":"2025-157Z","EPOCH":"2026-03-09T04:14:45.271104","MEAN_MOTION":15.30185177,"ECCENTRICITY":8.509e-5,"INCLINATION":53.1605,"RA_OF_ASC_NODE":348.1565,"ARG_OF_PERICENTER":103.4154,"MEAN_ANOMALY":256.6942,"EPHEMERIS_TYPE":0,"CLASSIFICATION_TYPE":"U","NORAD_CAT_ID":64927,"ELEMENT_SET_NO":999,"REV_AT_EPOCH":3576,"BSTAR":0.0012553914,"MEAN_MOTION_DOT":0.0003699,"MEAN_MOTION_DDOT":0}]
